; Sample G-code for FAB_3DP testing
; Generated for: 1200mm x 1200mm bed building 3D printer
; nozzle_diameter = 10
; layer_height = 40
; flavor = Marlin
;
; Geometry: 3 stacked square frames (outer 1200x1200mm + inner 800x800mm)
; Units: mm (auto-detected, will be scaled to cm internally)

G28 ; home all axes
G90 ; absolute positioning
M82 ; absolute extrusion
G92 E0

;LAYER:0
G0 X0 Y0 Z40 F3000
G1 X1200 Y0 Z40 E120 F1200
G1 X1200 Y1200 Z40 E240 F1200
G1 X0 Y1200 Z40 E360 F1200
G1 X0 Y0 Z40 E480 F1200
G0 X200 Y200 Z40 F3000
G1 X1000 Y200 Z40 E560 F1200
G1 X1000 Y1000 Z40 E640 F1200
G1 X200 Y1000 Z40 E720 F1200
G1 X200 Y200 Z40 E800 F1200

;LAYER:1
G0 X0 Y0 Z80 F3000
G1 X1200 Y0 Z80 E920 F1200
G1 X1200 Y1200 Z80 E1040 F1200
G1 X0 Y1200 Z80 E1160 F1200
G1 X0 Y0 Z80 E1280 F1200
G0 X200 Y200 Z80 F3000
G1 X1000 Y200 Z80 E1360 F1200
G1 X1000 Y1000 Z80 E1440 F1200
G1 X200 Y1000 Z80 E1520 F1200
G1 X200 Y200 Z80 E1600 F1200

;LAYER:2
G0 X20 Y20 Z120 F3000
G1 X1180 Y20 Z120 E1716 F1200
G1 X1180 Y1180 Z120 E1832 F1200
G1 X20 Y1180 Z120 E1948 F1200
G1 X20 Y20 Z120 E2064 F1200
G0 X220 Y220 Z120 F3000
G1 X980 Y220 Z120 E2140 F1200
G1 X980 Y980 Z120 E2216 F1200
G1 X220 Y980 Z120 E2292 F1200
G1 X220 Y220 Z120 E2368 F1200

M104 S0 ; turn off temperature
M84 ; disable motors
